HIMAWARI-8              
1 40267U 14060A   24183.56507625 -.00000272  00000+0  00000+0 0  9994
2 40267   0.0404 198.1665 0001173 296.3298 129.6871  1.00272364 35586
